NORAD_CAT_ID,OBJECT_NAME,OBJECT_TYPE,EPOCH,MEAN_MOTION,ECCENTRICITY,INCLINATION,RA_OF_ASC_NODE,ARG_OF_PERICENTER,MEAN_ANOMALY,BSTAR,MEAN_MOTION_DOT,MEAN_MOTION_DDOT,TLE_LINE0,TLE_LINE1,TLE_LINE2,SEMIMAJOR_AXIS,PERIOD,APOGEE,PERIGEE,DECAYED
53904.0,STARLINK-4787,PAYLOAD,2022-11-03 14:00:01,15.73296878,0.0002628,53.2164,56.928,15.447,47.5893,-0.00046949,-0.00066281,0.0,0 STARLINK-4787,1 53904U 22119U   22307.58334491 -.00066281  00000-0 -46949-3 0  9997,2 53904  53.2164  56.9280 0002628  15.4470  47.5893 15.73296878  1309,6727.619000000002,91.528,351.25199999999984,347.716,0.0
53904.0,STARLINK-4787,PAYLOAD,2022-11-03 22:00:00,15.73519128,0.0002351,53.2158,55.27,351.6699,160.3473,-0.007033,-0.00900551,0.0,0 STARLINK-4787,1 53904U 22119U   22307.91667824 -.00900551  00000-0 -70330-2 0  9990,2 53904  53.2158  55.2700 0002351 351.6699 160.3473 15.73519128  6727,6726.985,91.515,350.432,347.269,0.0
53904.0,STARLINK-4787,PAYLOAD,2022-11-04 06:00:00,15.73014346,0.0002398,53.2167,53.6121,299.142,301.7402,-0.0057096,-0.00730244,0.0,0 STARLINK-4787,1 53904U 22119U   22308.25001157 -.00730244  00000-0 -57096-2 0  9993,2 53904  53.2167  53.6121 0002398 299.1420 301.7402 15.73014346  6775,6728.425,91.544,351.903,348.676,0.0
53904.0,STARLINK-4787,PAYLOAD,2022-11-04 14:00:01,15.72495717,0.0004693,53.2172,51.9641,277.8119,51.4752,-0.0093865,-0.01141576,0.0,0 STARLINK-4787,1 53904U 22119U   22308.58334491 -.01141576  00000-0 -93865-2 0  9998,2 53904  53.2172  51.9641 0004693 277.8119  51.4752 15.72495717  6824,6729.904,91.574,354.927,348.611,0.0
53904.0,STARLINK-4787,PAYLOAD,2022-11-04 22:00:01,15.71698042,0.0006851,53.2168,50.3188,272.7725,144.1412,-0.0098633,-0.01158898,0.0,0 STARLINK-4787,1 53904U 22119U   22308.91668981 -.01158898  00000-0 -98633-2 0  9992,2 53904  53.2168  50.3188 0006851 272.7725 144.1412 15.71698042  1309,6732.181,91.621,358.658,349.434,0.0
53904.0,STARLINK-4787,PAYLOAD,2022-11-05 12:00:00,15.70137253,0.0002927,53.2167,47.4407,284.1276,193.6875,-0.0087927,-0.00982645,0.0,0 STARLINK-4787,1 53904U 22119U   22309.50001157 -.00982645  00000-0 -87927-2 0  9992,2 53904  53.2167  47.4407 0002927 284.1276 193.6875 15.70137253  6978,6736.641,91.712,360.478,356.535,0.0
53904.0,STARLINK-4787,PAYLOAD,2022-11-05 14:00:01,15.70022565,0.0002406,53.2175,47.0315,284.4865,304.6565,-0.0099152999999999,-0.01090107,0.0,0 STARLINK-4787,1 53904U 22119U   22309.58335648 -.01090107  00000-0 -99153-2 0  9993,2 53904  53.2175  47.0315 0002406 284.4865 304.6565 15.70022565  1301,6736.969,91.718,360.455,357.214,0.0
53904.0,STARLINK-4787,PAYLOAD,2022-11-05 22:00:01,15.69266272,4.78e-05,53.2169,45.3898,21.6324,292.1227,-0.011045,-0.01185866,0.0,0 STARLINK-4787,1 53904U 22119U   22309.91668981 -.01185866  00000-0 -11045-1 0  9999,2 53904  53.2169  45.3898 0000478  21.6324 292.1227 15.69266272  7034,6739.134,91.763,361.321,360.677,0.0
53904.0,STARLINK-4787,PAYLOAD,2022-11-06 14:00:01,15.67613943,0.0001148,53.2173,42.1142,83.6614,36.3816,-0.011464,-0.01153142,0.0,0 STARLINK-4787,1 53904U 22119U   22310.58334491 -.01153142  00000-0 -11464-1 0  9997,2 53904  53.2173  42.1142 0001148  83.6614  36.3816 15.67613943  7144,6743.869000000002,91.859,366.508,364.959,0.0
53904.0,STARLINK-4787,PAYLOAD,2022-11-07 14:00:01,15.65170546,0.0001046,53.2174,37.2153,87.6584,274.5641,-0.012617,-0.01149462,0.0,0 STARLINK-4787,1 53904U 22119U   22311.58334491 -.01149462  00000-0 -12617-1 0  9999,2 53904  53.2174  37.2153 0001046  87.6584 274.5641 15.65170546  7292,6750.885,92.003,373.456,372.044,0.0
53904.0,STARLINK-4787,PAYLOAD,2022-11-07 22:00:00,15.64348478,0.0001047,53.2175,35.5842,88.2979,352.7003,-0.012891,-0.01137582,0.0,0 STARLINK-4787,1 53904U 22119U   22311.91667824 -.01137582  00000-0 -12891-1 0  9999,2 53904  53.2175  35.5842 0001047  88.2979 352.7003 15.64348478  1302,6753.25,92.051,375.822,374.408,0.0
53904.0,STARLINK-4787,PAYLOAD,2022-11-08 08:00:01,15.63335605,0.0001185,53.2175,33.5511,64.0848,203.999,-0.013487,-0.011427,0.0,0 STARLINK-4787,1 53904U 22119U   22312.33334491 -.01142700  00000-0 -13487-1 0  9997,2 53904  53.2175  33.5511 0001185  64.0848 203.9990 15.63335605  7410,6756.167,92.111,378.832,377.231,0.0
53904.0,STARLINK-4787,PAYLOAD,2022-11-08 14:00:01,15.62765305,0.0001230999999999,53.2175,32.3347,78.473,157.1079,-0.014481,-0.01193971,0.0,0 STARLINK-4787,1 53904U 22119U   22312.58334491 -.01193971  00000-0 -14481-1 0  9995,2 53904  53.2175  32.3347 0001231  78.4730 157.1079 15.62765305  1308,6757.81,92.144,380.507,378.843,0.0
53904.0,STARLINK-4787,PAYLOAD,2022-11-08 22:00:00,15.61910074,0.0001115,53.2171,30.7097,66.4026,245.0386,-0.014254,-0.0114183,0.0,0 STARLINK-4787,1 53904U 22119U   22312.91667824 -.01141830  00000-0 -14254-1 0  9996,2 53904  53.2171  30.7097 0001115  66.4026 245.0386 15.61910074  1306,6760.276999999999,92.195,382.896,381.388,0.0
53904.0,STARLINK-4787,PAYLOAD,2022-11-09 04:00:00,15.61294377,0.0001164,53.2173,29.4921,73.5313,204.1484,-0.0144699999999999,-0.01132579,0.0,0 STARLINK-4787,1 53904U 22119U   22313.16667824 -.01132579  00000-0 -14470-1 0  9994,2 53904  53.2173  29.4921 0001164  73.5313 204.1484 15.61294377  7549,6762.054,92.231,384.706,383.132,0.0
53904.0,STARLINK-4787,PAYLOAD,2022-11-09 14:00:01,15.602702,0.0001248,53.2172,27.4716,62.7649,37.4199,-0.014904,-0.01122221,0.0,0 STARLINK-4787,1 53904U 22119U   22313.58334491 -.01122221  00000-0 -14904-1 0  9996,2 53904  53.2172  27.4716 0001248  62.7649  37.4199 15.60270200  1309,6765.013000000001,92.292,387.722,386.034,0.0
53904.0,STARLINK-4787,PAYLOAD,2022-11-09 22:00:01,15.594734699999998,0.0001345,53.2172,25.8526,58.2688,114.8782,-0.015736,-0.01146542,0.0,0 STARLINK-4787,1 53904U 22119U   22313.91668981 -.01146542  00000-0 -15736-1 0  9993,2 53904  53.2172  25.8526 0001345  58.2688 114.8782 15.59473470  7666,6767.316999999999,92.339,390.092,388.272,0.0
53904.0,STARLINK-4787,PAYLOAD,2022-11-10 14:00:01,15.57846021,0.0001161,53.2174,22.6259,63.6737,252.2797,-0.016722,-0.01145156,0.0,0 STARLINK-4787,1 53904U 22119U   22314.58334491 -.01145156  00000-0 -16722-1 0  9999,2 53904  53.2174  22.6259 0001161  63.6737 252.2797 15.57846021  1309,6772.029,92.435,394.68,393.108,0.0
53904.0,STARLINK-4787,PAYLOAD,2022-11-10 20:00:01,15.572279,0.0001173,53.2174,21.4151,69.5533,208.9744,-0.016951,-0.01135103,0.0,0 STARLINK-4787,1 53904U 22119U   22314.83334491 -.01135103  00000-0 -16951-1 0  9992,2 53904  53.2174  21.4151 0001173  69.5533 208.9744 15.57227900  7809,6773.821,92.472,396.481,394.892,0.0
53904.0,STARLINK-4787,PAYLOAD,2022-11-10 22:00:00,15.57023063,0.0001269,53.2174,21.0123,47.2703,338.6589,-0.017046,-0.01132952,0.0,0 STARLINK-4787,1 53904U 22119U   22314.91667824 -.01132952  00000-0 -17046-1 0  9995,2 53904  53.2174  21.0123 0001269  47.2703 338.6589 15.57023063  1303,6774.415,92.484,397.14,395.421,0.0
53904.0,STARLINK-4787,PAYLOAD,2022-11-11 14:00:01,15.55402127,0.0001431999999999,53.2173,17.7981,57.4319,105.4979,-0.018228,-0.01139603,0.0,0 STARLINK-4787,1 53904U 22119U   22315.58334491 -.01139603  00000-0 -18228-1 0  9993,2 53904  53.2173  17.7981 0001432  57.4319 105.4979 15.55402127  7921,6779.121,92.581,401.957,400.015,0.0
53904.0,STARLINK-4787,PAYLOAD,2022-11-11 22:00:00,15.54599158,0.0001399,53.2172,16.1913,54.0856,175.8764,-0.019056,-0.01154788,0.0,0 STARLINK-4787,1 53904U 22119U   22315.91667824 -.01154788  00000-0 -19056-1 0  9990,2 53904  53.2172  16.1913 0001399  54.0856 175.8764 15.54599158  1308,6781.455,92.628,404.269,402.371,0.0
53904.0,STARLINK-4787,PAYLOAD,2022-11-12 14:00:01,15.52962658,0.0001203,53.217,12.9881,59.0236,302.0804,-0.01999,-0.01142058,0.0,0 STARLINK-4787,1 53904U 22119U   22316.58334491 -.01142058  00000-0 -19990-1 0  9999,2 53904  53.2170  12.9881 0001203  59.0236 302.0804 15.52962658  1312,6786.218000000003,92.726,408.9,407.267,0.0
53904.0,STARLINK-4787,PAYLOAD,2022-11-12 22:00:00,15.52145645,0.0001388,53.2172,11.3868,43.7751,21.4343,-0.020503,-0.01137615,0.0,0 STARLINK-4787,1 53904U 22119U   22316.91667824 -.01137615  00000-0 -20503-1 0  9990,2 53904  53.2172  11.3868 0001388  43.7751  21.4343 15.52145645  1306,6788.6,92.775,411.407,409.522,0.0
53904.0,STARLINK-4787,PAYLOAD,2022-11-13 14:00:01,15.50383974,0.0001406,53.2172,8.1955,60.7541,129.7428,-0.010978,-0.00589142,0.0,0 STARLINK-4787,1 53904U 22119U   22317.58334491 -.00589142  00000-0 -10978-1 0  9995,2 53904  53.2172   8.1955 0001406  60.7541 129.7428 15.50383974  1307,6793.741,92.88,416.561,414.651,0.0
53904.0,STARLINK-4787,PAYLOAD,2022-11-13 22:00:00,15.49961222,0.0001321,53.2159,6.6041,50.7854,200.9066,-0.00078394,-0.0004481,0.0,0 STARLINK-4787,1 53904U 22119U   22317.91667824 -.00044810  00000-0 -78394-3 0  9997,2 53904  53.2159   6.6041 0001321  50.7854 200.9066 15.49961222  1309,6794.976,92.906,417.739,415.944,0.0
53904.0,STARLINK-4787,PAYLOAD,2022-11-14 14:00:01,15.49814612,0.0001485,53.2171,3.4154,48.7735,324.8472,0.0020106,0.00115066,0.0,0 STARLINK-4787,1 53904U 22119U   22318.58334491  .00115066  00000-0  20106-2 0  9999,2 53904  53.2171   3.4154 0001485  48.7735 324.8472 15.49814612  8392,6795.405,92.914,418.279,416.261,0.0
53904.0,STARLINK-4787,PAYLOAD,2022-11-14 22:00:00,15.49884132,0.0001368,53.2176,1.8195,55.4761,19.027,4.3142e-05,1.998e-05,0.0,0 STARLINK-4787,1 53904U 22119U   22318.91667824  .00001998  00000-0  43142-4 0  9990,2 53904  53.2176   1.8195 0001368  55.4761  19.0270 15.49884132  8447,6795.2019999999975,92.91,417.996,416.137,0.0
53904.0,STARLINK-4787,PAYLOAD,2022-11-15 04:00:00,15.49951404,0.0001337,53.216,0.6278,48.396,341.8929,-0.0032592,-0.00181632,0.0,0 STARLINK-4787,1 53904U 22119U   22319.16667824 -.00181632  00000-0 -32592-2 0  9999,2 53904  53.2160   0.6278 0001337  48.3960 341.8929 15.49951404  8485,6795.005,92.906,417.779,415.962,0.0
